[{"OBJECT_NAME":"STARLINK-4330","OBJECT_ID":"2022-077AP","EPOCH":"2026-01-01T12:05:11.213664","MEAN_MOTION":15.05646394,"ECCENTRICITY":0.00021992,"INCLINATION":97.6036,"RA_OF_ASC_NODE":184.9806,"ARG_OF_PERICENTER":85.125,"MEAN_ANOMALY":275.0228,"EPHEMERIS_TYPE":0,"CLASSIFICATION_TYPE":"U","NORAD_CAT_ID":53080,"ELEMENT_SET_NO":999,"REV_AT_EPOCH":19087,"BSTAR":-3.627616e-6,"MEAN_MOTION_DOT":-1.13e-6,"MEAN_MOTION_DDOT":0},{"OBJECT_NAME":"STARLINK-4326","OBJECT_ID":"2022-077AQ","EPOCH":"2026-01-01T11:22:44.889024","MEAN_MOTION":15.01267508,"ECCENTRICITY":0.00023506,"INCLINATION":97.6013,"RA_OF_ASC_NODE":184.3867,"ARG_OF_PERICENTER":190.7014,"MEAN_ANOMALY":169.4161,"EPHEMERIS_TYPE":0,"CLASSIFICATION_TYPE":"U","NORAD_CAT_ID":53081,"ELEMENT_SET_NO":999,"REV_AT_EPOCH":19083,"BSTAR":-7.4510267e-5,"MEAN_MOTION_DOT":-1.015e-5,"MEAN_MOTION_DDOT":0},{"OBJECT_NAME":"STARLINK-4321","OBJECT_ID":"2022-077AR","EPOCH":"2026-01-01T11:14:24.044640","MEAN_MOTION":15.0125855,"ECCENTRICITY":0.00027619,"INCLINATION":97.6025,"RA_OF_ASC_NODE":184.3975,"ARG_OF_PERICENTER":160.387,"MEAN_ANOMALY":199.7461,"EPHEMERIS_TYPE":0,"CLASSIFICATION_TYPE":"U","NORAD_CAT_ID":53082,"ELEMENT_SET_NO":999,"REV_AT_EPOCH":19083,"BSTAR":-3.2478333e-5,"MEAN_MOTION_DOT":-4.75e-6,"MEAN_MOTION_DDOT":0},{"OBJECT_NAME":"STARLINK-4251","OBJECT_ID":"2022-077AS","EPOCH":"2026-01-01T11:57:12.143808","MEAN_MOTION":15.0564925,"ECCENTRICITY":0.00016439,"INCLINATION":97.6036,"RA_OF_ASC_NODE":184.9452,"ARG_OF_PERICENTER":91.8718,"MEAN_ANOMALY":268.2697,"EPHEMERIS_TYPE":0,"CLASSIFICATION_TYPE":"U","NORAD_CAT_ID":53083,"ELEMENT_SET_NO":999,"REV_AT_EPOCH":19087,"BSTAR":3.3137509e-5,"MEAN_MOTION_DOT":4.17e-6,"MEAN_MOTION_DDOT":0},{"OBJECT_NAME":"STARLINK-4319","OBJECT_ID":"2022-077AT","EPOCH":"2026-01-01T11:53:12.946272","MEAN_MOTION":15.05651398,"ECCENTRICITY":0.00016135,"INCLINATION":97.6037,"RA_OF_ASC_NODE":184.9738,"ARG_OF_PERICENTER":69.8445,"MEAN_ANOMALY":290.2955,"EPHEMERIS_TYPE":0,"CLASSIFICATION_TYPE":"U","NORAD_CAT_ID":53084,"ELEMENT_SET_NO":999,"REV_AT_EPOCH":19087,"BSTAR":4.3057251e-5,"MEAN_MOTION_DOT":5.61e-6,"MEAN_MOTION_DDOT":0},{"OBJECT_NAME":"STARLINK-4324","OBJECT_ID":"2022-077AU","EPOCH":"2026-01-01T12:13:09.164640","MEAN_MOTION":15.05645992,"ECCENTRICITY":0.00014267,"INCLINATION":97.6029,"RA_OF_ASC_NODE":184.9492,"ARG_OF_PERICENTER":81.3461,"MEAN_ANOMALY":278.7928,"EPHEMERIS_TYPE":0,"CLASSIFICATION_TYPE":"U","NORAD_CAT_ID":53085,"ELEMENT_SET_NO":999,"REV_AT_EPOCH":19087,"BSTAR":5.5760157e-5,"MEAN_MOTION_DOT":7.44e-6,"MEAN_MOTION_DDOT":0},{"OBJECT_NAME":"STARLINK-4318","OBJECT_ID":"2022-077AV","EPOCH":"2026-01-01T11:09:03.987936","MEAN_MOTION":15.01261915,"ECCENTRICITY":0.00014931,"INCLINATION":97.6023,"RA_OF_ASC_NODE":184.3953,"ARG_OF_PERICENTER":116.2989,"MEAN_ANOMALY":243.8389,"EPHEMERIS_TYPE":0,"CLASSIFICATION_TYPE":"U","NORAD_CAT_ID":53086,"ELEMENT_SET_NO":999,"REV_AT_EPOCH":19083,"BSTAR":3.585603e-6,"MEAN_MOTION_DOT":-1.2e-7,"MEAN_MOTION_DDOT":0},{"OBJECT_NAME":"STARLINK-4333","OBJECT_ID":"2022-077AX","EPOCH":"2026-01-01T11:03:44.358048","MEAN_MOTION":15.01271342,"ECCENTRICITY":8.557e-5,"INCLINATION":97.6043,"RA_OF_ASC_NODE":184.394,"ARG_OF_PERICENTER":166.5253,"MEAN_ANOMALY":193.5995,"EPHEMERIS_TYPE":0,"CLASSIFICATION_TYPE":"U","NORAD_CAT_ID":53088,"ELEMENT_SET_NO":999,"REV_AT_EPOCH":19083,"BSTAR":6.7860688e-5,"MEAN_MOTION_DOT":8.14e-6,"MEAN_MOTION_DDOT":0},{"OBJECT_NAME":"STARLINK-4150","OBJECT_ID":"2022-083C","EPOCH":"2026-01-01T13:45:48.169152","MEAN_MOTION":15.08842192,"ECCENTRICITY":0.00012762,"INCLINATION":53.2176,"RA_OF_ASC_NODE":115.4167,"ARG_OF_PERICENTER":76.1941,"MEAN_ANOMALY":283.9193,"EPHEMERIS_TYPE":0,"CLASSIFICATION_TYPE":"U","NORAD_CAT_ID":53134,"ELEMENT_SET_NO":999,"REV_AT_EPOCH":19108,"BSTAR":8.8503854e-5,"MEAN_MOTION_DOT":1.121e-5,"MEAN_MOTION_DDOT":0},{"OBJECT_NAME":"STARLINK-4023","OBJECT_ID":"2022-083D","EPOCH":"2026-01-01T13:56:24.233856","MEAN_MOTION":15.08835924,"ECCENTRICITY":0.00013838,"INCLINATION":53.2172,"RA_OF_ASC_NODE":115.384,"ARG_OF_PERICENTER":86.6467,"MEAN_ANOMALY":273.4683,"EPHEMERIS_TYPE":0,"CLASSIFICATION_TYPE":"U","NORAD_CAT_ID":53135,"ELEMENT_SET_NO":999,"REV_AT_EPOCH":19207,"BSTAR":9.990776e-6,"MEAN_MOTION_DOT":-1.29e-6,"MEAN_MOTION_DDOT":0},{"OBJECT_NAME":"STARLINK-4152","OBJECT_ID":"2022-083E","EPOCH":"2026-01-01T13:51:06.253344","MEAN_MOTION":15.08836737,"ECCENTRICITY":0.00012987,"INCLINATION":53.2169,"RA_OF_ASC_NODE":115.4,"ARG_OF_PERICENTER":73.8629,"MEAN_ANOMALY":286.2506,"EPHEMERIS_TYPE":0,"CLASSIFICATION_TYPE":"U","NORAD_CAT_ID":53136,"ELEMENT_SET_NO":999,"REV_AT_EPOCH":19207,"BSTAR":2.4635215e-5,"MEAN_MOTION_DOT":1.04e-6,"MEAN_MOTION_DDOT":0},{"OBJECT_NAME":"STARLINK-4145","OBJECT_ID":"2022-083F","EPOCH":"2026-01-01T13:40:30.171360","MEAN_MOTION":15.08840531,"ECCENTRICITY":0.00013137,"INCLINATION":53.2169,"RA_OF_ASC_NODE":115.4323,"ARG_OF_PERICENTER":89.6261,"MEAN_ANOMALY":270.4882,"EPHEMERIS_TYPE":0,"CLASSIFICATION_TYPE":"U","NORAD_CAT_ID":53137,"ELEMENT_SET_NO":999,"REV_AT_EPOCH":19108,"BSTAR":0.0001255772,"MEAN_MOTION_DOT":1.711e-5,"MEAN_MOTION_DDOT":0},{"OBJECT_NAME":"STARLINK-4141","OBJECT_ID":"2022-083G","EPOCH":"2026-01-01T13:38:32.942112","MEAN_MOTION":15.08840432,"ECCENTRICITY":0.00012622,"INCLINATION":53.2176,"RA_OF_ASC_NODE":110.6214,"ARG_OF_PERICENTER":77.1705,"MEAN_ANOMALY":282.9429,"EPHEMERIS_TYPE":0,"CLASSIFICATION_TYPE":"U","NORAD_CAT_ID":53138,"ELEMENT_SET_NO":999,"REV_AT_EPOCH":19192,"BSTAR":2.7210937e-5,"MEAN_MOTION_DOT":1.45e-6,"MEAN_MOTION_DDOT":0},{"OBJECT_NAME":"STARLINK-4185","OBJECT_ID":"2022-083H","EPOCH":"2026-01-01T14:59:59.704512","MEAN_MOTION":15.08838179,"ECCENTRICITY":0.00013775,"INCLINATION":53.2195,"RA_OF_ASC_NODE":115.1871,"ARG_OF_PERICENTER":95.6292,"MEAN_ANOMALY":264.4858,"EPHEMERIS_TYPE":0,"CLASSIFICATION_TYPE":"U","NORAD_CAT_ID":53139,"ELEMENT_SET_NO":999,"REV_AT_EPOCH":19109,"BSTAR":6.409031e-5,"MEAN_MOTION_DOT":7.32e-6,"MEAN_MOTION_DDOT":0},{"OBJECT_NAME":"STARLINK-4170","OBJECT_ID":"2022-083J","EPOCH":"2026-01-01T15:05:17.907072","MEAN_MOTION":15.08833916,"ECCENTRICITY":0.00012578,"INCLINATION":53.2187,"RA_OF_ASC_NODE":115.1693,"ARG_OF_PERICENTER":82.1449,"MEAN_ANOMALY":277.9685,"EPHEMERIS_TYPE":0,"CLASSIFICATION_TYPE":"U","NORAD_CAT_ID":53140,"ELEMENT_SET_NO":999,"REV_AT_EPOCH":19109,"BSTAR":6.5991643e-5,"MEAN_MOTION_DOT":7.62e-6,"MEAN_MOTION_DDOT":0},{"OBJECT_NAME":"STARLINK-4103","OBJECT_ID":"2022-083K","EPOCH":"2026-01-01T14:38:48.110784","MEAN_MOTION":15.08829678,"ECCENTRICITY":0.00011426,"INCLINATION":53.217,"RA_OF_ASC_NODE":115.2486,"ARG_OF_PERICENTER":75.5396,"MEAN_ANOMALY":284.5723,"EPHEMERIS_TYPE":0,"CLASSIFICATION_TYPE":"U","NORAD_CAT_ID":53141,"ELEMENT_SET_NO":999,"REV_AT_EPOCH":19109,"BSTAR":2.2179877e-5,"MEAN_MOTION_DOT":6.5e-7,"MEAN_MOTION_DDOT":0}]
