STARLINK-4330           
1 53080U 22077AP  26001.50360201 -.00000113  00000+0 -36276-5 0  9995
2 53080  97.6036 184.9806 0002199  85.1250 275.0228 15.05646394190871
STARLINK-4326           
1 53081U 22077AQ  26001.47413066 -.00001015  00000+0 -74510-4 0  9994
2 53081  97.6013 184.3867 0002350 190.7014 169.4161 15.01267508190838
STARLINK-4321           
1 53082U 22077AR  26001.46833385 -.00000475  00000+0 -32478-4 0  9990
2 53082  97.6025 184.3975 0002761 160.3870 199.7461 15.01258550190837
STARLINK-4251           
1 53083U 22077AS  26001.49805722  .00000417  00000+0  33138-4 0  9996
2 53083  97.6036 184.9452 0001643  91.8718 268.2697 15.05649250190875
STARLINK-4319           
1 53084U 22077AT  26001.49528873  .00000561  00000+0  43057-4 0  9997
2 53084  97.6037 184.9738 0001613  69.8445 290.2955 15.05651398190871
STARLINK-4324           
1 53085U 22077AU  26001.50913385  .00000744  00000+0  55760-4 0  9993
2 53085  97.6029 184.9492 0001426  81.3461 278.7928 15.05645992190873
STARLINK-4318           
1 53086U 22077AV  26001.46462949 -.00000012  00000+0  35856-5 0  9998
2 53086  97.6023 184.3953 0001493 116.2989 243.8389 15.01261915190836
STARLINK-4333           
1 53088U 22077AX  26001.46093007  .00000814  00000+0  67861-4 0  9994
2 53088  97.6043 184.3940 0000855 166.5253 193.5995 15.01271342190838
STARLINK-4150           
1 53134U 22083C   26001.57347418  .00001121  00000+0  88504-4 0  9992
2 53134  53.2176 115.4167 0001276  76.1941 283.9193 15.08842192191085
STARLINK-4023           
1 53135U 22083D   26001.58083604 -.00000129  00000+0  99908-5 0  9997
2 53135  53.2172 115.3840 0001383  86.6467 273.4683 15.08835924192070
STARLINK-4152           
1 53136U 22083E   26001.57715571  .00000104  00000+0  24635-4 0  9998
2 53136  53.2169 115.4000 0001298  73.8629 286.2506 15.08836737192078
STARLINK-4145           
1 53137U 22083F   26001.56979365  .00001711  00000+0  12558-3 0  9996
2 53137  53.2169 115.4323 0001313  89.6261 270.4882 15.08840531191081
STARLINK-4141           
1 53138U 22083G   26001.56843683  .00000145  00000+0  27211-4 0  9993
2 53138  53.2176 110.6214 0001262  77.1705 282.9429 15.08840432191922
STARLINK-4185           
1 53139U 22083H   26001.62499658  .00000732  00000+0  64090-4 0  9998
2 53139  53.2195 115.1871 0001377  95.6292 264.4858 15.08838179191090
STARLINK-4170           
1 53140U 22083J   26001.62867948  .00000762  00000+0  65992-4 0  9996
2 53140  53.2187 115.1693 0001257  82.1449 277.9685 15.08833916191098
STARLINK-4103           
1 53141U 22083K   26001.61027906  .00000065  00000+0  22180-4 0  9996
2 53141  53.2170 115.2486 0001142  75.5396 284.5723 15.08829678191099
